start=new Date('2021-09-15T00:00:00.000Z').valueOf();
sats=[{"BSTAR":"-0.00002727600000","TLE_LINE1":"1 48122U 21027AG  21257.86590502 -.00000687  00000-0 -27276-4 0  9992","APOAPSIS":"547.704","TIME_SYSTEM":"UTC","EPHEMERIS_TYPE":"0","ECCENTRICITY":"0.00006540","SEMIMAJOR_AXIS":"6925.386","REV_AT_EPOCH":"2592","RA_OF_ASC_NODE":"304.5960","DECAY_DATE":null,"MEAN_MOTION":"15.06387868","MEAN_MOTION_DOT":"-0.00000687","GP_ID":"184724275","SITE":"AFETR","MEAN_ANOMALY":"210.2202","COUNTRY_CODE":"US","OBJECT_ID":"2021-027AG","LAUNCH_DATE":"2021-04-07","MEAN_ELEMENT_THEORY":"SGP4","OBJECT_TYPE":"PAYLOAD","PERIOD":"95.593","OBJECT_NAME":"STARLINK-2463","CLASSIFICATION_TYPE":"U","INCLINATION":"53.0553","ELEMENT_SET_NO":"999","FILE":"3115650","ARG_OF_PERICENTER":"149.8825","TLE_LINE2":"2 48122  53.0553 304.5960 0000654 149.8825 210.2202 15.06387868 25928","RCS_SIZE":"LARGE","NORAD_CAT_ID":"48122","EPOCH":"2021-09-14T20:46:54.193728","PERIAPSIS":"546.798","CENTER_NAME":"EARTH","REF_FRAME":"TEME","MEAN_MOTION_DDOT":"0.0000000000000"},{"NORAD_CAT_ID":"48123","EPOCH":"2021-09-14T12:59:10.938912","PERIAPSIS":"546.610","CENTER_NAME":"EARTH","REF_FRAME":"TEME","MEAN_MOTION_DDOT":"0.0000000000000","ARG_OF_PERICENTER":"135.6475","TLE_LINE2":"2 48123  53.0559 301.0537 0000887 135.6475 224.4585 15.06396650 25941","RCS_SIZE":"LARGE","OBJECT_NAME":"STARLINK-2464","CLASSIFICATION_TYPE":"U","INCLINATION":"53.0559","ELEMENT_SET_NO":"999","FILE":"3115650","LAUNCH_DATE":"2021-04-07","MEAN_ELEMENT_THEORY":"SGP4","OBJECT_TYPE":"PAYLOAD","PERIOD":"95.592","SITE":"AFETR","MEAN_ANOMALY":"224.4585","COUNTRY_CODE":"US","OBJECT_ID":"2021-027AH","MEAN_MOTION_DOT":"-0.00000407","GP_ID":"184724526","REV_AT_EPOCH":"2594","DECAY_DATE":null,"RA_OF_ASC_NODE":"301.0537","MEAN_MOTION":"15.06396650","TLE_LINE1":"1 48123U 21027AH  21257.54109883 -.00000407  00000-0 -84744-5 0  9990","APOAPSIS":"547.838","TIME_SYSTEM":"UTC","BSTAR":"-0.00000847440000","EPHEMERIS_TYPE":"0","ECCENTRICITY":"0.00008870","SEMIMAJOR_AXIS":"6925.359"},{"SEMIMAJOR_AXIS":"6925.378","EPHEMERIS_TYPE":"0","ECCENTRICITY":"0.00008520","BSTAR":"-0.00002835100000","TLE_LINE1":"1 48124U 21027AJ  21257.87192137 -.00000703  00000-0 -28351-4 0  9991","APOAPSIS":"547.833","TIME_SYSTEM":"UTC","MEAN_MOTION":"15.06390460","DECAY_DATE":null,"RA_OF_ASC_NODE":"309.5740","REV_AT_EPOCH":"2584","GP_ID":"184723274","MEAN_MOTION_DOT":"-0.00000703","MEAN_ANOMALY":"239.3978","COUNTRY_CODE":"US","OBJECT_ID":"2021-027AJ","SITE":"AFETR","PERIOD":"95.593","OBJECT_TYPE":"PAYLOAD","MEAN_ELEMENT_THEORY":"SGP4","LAUNCH_DATE":"2021-04-07","FILE":"3115650","ELEMENT_SET_NO":"999","INCLINATION":"53.0565","CLASSIFICATION_TYPE":"U","OBJECT_NAME":"STARLINK-2465","RCS_SIZE":"LARGE","TLE_LINE2":"2 48124  53.0565 309.5740 0000852 120.7095 239.3978 15.06390460 25846","ARG_OF_PERICENTER":"120.7095","MEAN_MOTION_DDOT":"0.0000000000000","REF_FRAME":"TEME","CENTER_NAME":"EARTH","PERIAPSIS":"546.653","EPOCH":"2021-09-14T20:55:34.006368","NORAD_CAT_ID":"48124"},{"SITE":"AFETR","MEAN_ANOMALY":"225.5900","COUNTRY_CODE":"US","OBJECT_ID":"2021-027AK","MEAN_MOTION_DOT":"-0.00000361","GP_ID":"184723524","REV_AT_EPOCH":"2571","MEAN_MOTION":"15.06391141","DECAY_DATE":null,"RA_OF_ASC_NODE":"319.6104","BSTAR":"-0.00000537210000","TLE_LINE1":"1 48125U 21027AK  21257.86268251 -.00000361  00000-0 -53721-5 0  9992","APOAPSIS":"547.872","TIME_SYSTEM":"UTC","SEMIMAJOR_AXIS":"6925.376","ECCENTRICITY":"0.00009110","EPHEMERIS_TYPE":"0","PERIAPSIS":"546.610","NORAD_CAT_ID":"48125","EPOCH":"2021-09-14T20:42:15.768864","REF_FRAME":"TEME","MEAN_MOTION_DDOT":"0.0000000000000","CENTER_NAME":"EARTH","ARG_OF_PERICENTER":"134.5164","RCS_SIZE":"LARGE","TLE_LINE2":"2 48125  53.0566 319.6104 0000911 134.5164 225.5900 15.06391141 25715","OBJECT_NAME":"STARLINK-2466","CLASSIFICATION_TYPE":"U","FILE":"3115650","INCLINATION":"53.0566","ELEMENT_SET_NO":"999","LAUNCH_DATE":"2021-04-07","OBJECT_TYPE":"PAYLOAD","PERIOD":"95.593","MEAN_ELEMENT_THEORY":"SGP4"},{"APOAPSIS":"547.592","TLE_LINE1":"1 48126U 21027AL  21257.83966392  .00001118  00000-0  93923-4 0  9997","TIME_SYSTEM":"UTC","BSTAR":"0.00009392300000","EPHEMERIS_TYPE":"0","ECCENTRICITY":"0.00005090","SEMIMAJOR_AXIS":"6925.375","REV_AT_EPOCH":"2599","DECAY_DATE":null,"RA_OF_ASC_NODE":"299.7445","MEAN_MOTION":"15.06391402","MEAN_MOTION_DOT":"0.00001118","GP_ID":"184723776","SITE":"AFETR","COUNTRY_CODE":"US","OBJECT_ID":"2021-027AL","MEAN_ANOMALY":"282.4793","LAUNCH_DATE":"2021-04-07","MEAN_ELEMENT_THEORY":"SGP4","PERIOD":"95.593","OBJECT_TYPE":"PAYLOAD","CLASSIFICATION_TYPE":"U","OBJECT_NAME":"STARLINK-2467","ELEMENT_SET_NO":"999","INCLINATION":"53.0467","FILE":"3115650","ARG_OF_PERICENTER":"77.6253","TLE_LINE2":"2 48126  53.0467 299.7445 0000509  77.6253 282.4793 15.06391402 25993","RCS_SIZE":"LARGE","EPOCH":"2021-09-14T20:09:06.962688","NORAD_CAT_ID":"48126","PERIAPSIS":"546.887","CENTER_NAME":"EARTH","MEAN_MOTION_DDOT":"0.0000000000000","REF_FRAME":"TEME"},{"GP_ID":"184724027","MEAN_MOTION_DOT":"0.00001231","COUNTRY_CODE":"US","OBJECT_ID":"2021-027AM","MEAN_ANOMALY":"249.5453","SITE":"AFETR","SEMIMAJOR_AXIS":"6925.362","EPHEMERIS_TYPE":"0","ECCENTRICITY":"0.00008700","APOAPSIS":"547.829","TLE_LINE1":"1 48127U 21027AM  21257.56505478  .00001231  00000-0  10149-3 0  9996","BSTAR":"0.00010149000000","TIME_SYSTEM":"UTC","MEAN_MOTION":"15.06395644","RA_OF_ASC_NODE":"320.9464","DECAY_DATE":null,"REV_AT_EPOCH":"2566","TLE_LINE2":"2 48127  53.0565 320.9464 0000870 110.5629 249.5453 15.06395644 25669","RCS_SIZE":"LARGE","ARG_OF_PERICENTER":"110.5629","MEAN_MOTION_DDOT":"0.0000000000000","REF_FRAME":"TEME","CENTER_NAME":"EARTH","PERIAPSIS":"546.624","EPOCH":"2021-09-14T13:33:40.732992","NORAD_CAT_ID":"48127","PERIOD":"95.592","OBJECT_TYPE":"PAYLOAD","MEAN_ELEMENT_THEORY":"SGP4","LAUNCH_DATE":"2021-04-07","FILE":"3115650","ELEMENT_SET_NO":"999","INCLINATION":"53.0565","CLASSIFICATION_TYPE":"U","OBJECT_NAME":"STARLINK-2468"},{"EPHEMERIS_TYPE":"0","ECCENTRICITY":"0.00042830","SEMIMAJOR_AXIS":"6727.779","BSTAR":"0.00010637000000","TLE_LINE1":"1 48128U 21027AN  21257.50933603  .00014364  00000-0  10637-3 0  9999","APOAPSIS":"352.525","TIME_SYSTEM":"UTC","RA_OF_ASC_NODE":"266.2958","DECAY_DATE":null,"MEAN_MOTION":"15.73240813","REV_AT_EPOCH":"2602","GP_ID":"184700558","MEAN_MOTION_DOT":"0.00014364","MEAN_ANOMALY":"20.2475","COUNTRY_CODE":"US","OBJECT_ID":"2021-027AN","SITE":"AFETR","MEAN_ELEMENT_THEORY":"SGP4","PERIOD":"91.531","OBJECT_TYPE":"PAYLOAD","LAUNCH_DATE":"2021-04-07","ELEMENT_SET_NO":"999","INCLINATION":"53.0435","FILE":"3115583","CLASSIFICATION_TYPE":"U","OBJECT_NAME":"STARLINK-2469","TLE_LINE2":"2 48128  53.0435 266.2958 0004283 339.8373  20.2475 15.73240813 26020","RCS_SIZE":"LARGE","ARG_OF_PERICENTER":"339.8373","CENTER_NAME":"EARTH","MEAN_MOTION_DDOT":"0.0000000000000","REF_FRAME":"TEME","EPOCH":"2021-09-14T12:13:26.632992","NORAD_CAT_ID":"48128","PERIAPSIS":"346.762"},{"REV_AT_EPOCH":"2566","DECAY_DATE":null,"RA_OF_ASC_NODE":"320.9786","MEAN_MOTION":"15.06403501","BSTAR":"-0.00000329900000","TLE_LINE1":"1 48129U 21027AP  21257.55768727 -.00000330  00000-0 -32990-5 0  9996","APOAPSIS":"547.600","TIME_SYSTEM":"UTC","EPHEMERIS_TYPE":"0","ECCENTRICITY":"0.00005730","SEMIMAJOR_AXIS":"6925.338","SITE":"AFETR","MEAN_ANOMALY":"231.8535","COUNTRY_CODE":"US","OBJECT_ID":"2021-027AP","MEAN_MOTION_DOT":"-0.00000330","GP_ID":"184723025","CLASSIFICATION_TYPE":"U","OBJECT_NAME":"STARLINK-2471","ELEMENT_SET_NO":"999","INCLINATION":"53.0567","FILE":"3115650","LAUNCH_DATE":"2021-04-07","MEAN_ELEMENT_THEORY":"SGP4","PERIOD":"95.592","OBJECT_TYPE":"PAYLOAD","EPOCH":"2021-09-14T13:23:04.180128","NORAD_CAT_ID":"48129","PERIAPSIS":"546.806","CENTER_NAME":"EARTH","MEAN_MOTION_DDOT":"0.0000000000000","REF_FRAME":"TEME","ARG_OF_PERICENTER":"128.2505","TLE_LINE2":"2 48129  53.0567 320.9786 0000573 128.2505 231.8535 15.06403501 25666","RCS_SIZE":"LARGE"},{"LAUNCH_DATE":"2021-04-07","MEAN_ELEMENT_THEORY":"SGP4","PERIOD":"95.592","OBJECT_TYPE":"PAYLOAD","CLASSIFICATION_TYPE":"U","OBJECT_NAME":"STARLINK-2472","ELEMENT_SET_NO":"999","INCLINATION":"53.0570","FILE":"3115650","ARG_OF_PERICENTER":"109.2250","TLE_LINE2":"2 48130  53.0570 326.3318 0001109 109.2250 250.8859 15.06395077 25584","RCS_SIZE":"LARGE","EPOCH":"2021-09-14T11:32:14.821440","NORAD_CAT_ID":"48130","PERIAPSIS":"546.461","CENTER_NAME":"EARTH","MEAN_MOTION_DDOT":"0.0000000000000","REF_FRAME":"TEME","APOAPSIS":"547.997","TLE_LINE1":"1 48130U 21027AQ  21257.48072710 -.00000549  00000-0 -17973-4 0  9995","BSTAR":"-0.00001797300000","TIME_SYSTEM":"UTC","EPHEMERIS_TYPE":"0","ECCENTRICITY":"0.00011090","SEMIMAJOR_AXIS":"6925.364","REV_AT_EPOCH":"2558","RA_OF_ASC_NODE":"326.3318","DECAY_DATE":null,"MEAN_MOTION":"15.06395077","MEAN_MOTION_DOT":"-0.00000549","GP_ID":"184724276","SITE":"AFETR","MEAN_ANOMALY":"250.8859","COUNTRY_CODE":"US","OBJECT_ID":"2021-027AQ"},{"MEAN_MOTION_DOT":"-0.00000635","GP_ID":"184724527","SITE":"AFETR","MEAN_ANOMALY":"240.6482","COUNTRY_CODE":"US","OBJECT_ID":"2021-027AR","BSTAR":"-0.00002374500000","TLE_LINE1":"1 48131U 21027AR  21257.83229741 -.00000635  00000-0 -23745-4 0  9993","APOAPSIS":"547.756","TIME_SYSTEM":"UTC","SEMIMAJOR_AXIS":"6925.387","EPHEMERIS_TYPE":"0","ECCENTRICITY":"0.00007270","REV_AT_EPOCH":"2598","MEAN_MOTION":"15.06387384","RA_OF_ASC_NODE":"299.7661","DECAY_DATE":null,"ARG_OF_PERICENTER":"119.4579","RCS_SIZE":"LARGE","TLE_LINE2":"2 48131  53.0553 299.7661 0000727 119.4579 240.6482 15.06387384 25987","PERIAPSIS":"546.749","EPOCH":"2021-09-14T19:58:30.496224","NORAD_CAT_ID":"48131","MEAN_MOTION_DDOT":"0.0000000000000","REF_FRAME":"TEME","CENTER_NAME":"EARTH","LAUNCH_DATE":"2021-04-07","PERIOD":"95.593","OBJECT_TYPE":"PAYLOAD","MEAN_ELEMENT_THEORY":"SGP4","CLASSIFICATION_TYPE":"U","OBJECT_NAME":"STARLINK-2473","FILE":"3115650","ELEMENT_SET_NO":"999","INCLINATION":"53.0553"}];
